SL-16 R/B               
1 25400U 98043G   25348.83315695  .00000079  00000+0  52034-4 0  9990
2 25400  98.8127 296.6630 0008782 259.9370 100.0819 14.26026123426895
SL-16 R/B               
1 25407U 98045B   25348.74245756 -.00000139  00000+0 -46057-4 0  9996
2 25407  71.0116   0.2151 0006810 174.3063 185.8139 14.16174656415077
ISS (ZARYA)             
1 25544U 98067A   25348.86277765  .00007299  00000+0  13766-3 0  9992
2 25544  51.6306 131.9662 0003207 249.8734 110.1909 15.49595360543189
CZ-4B R/B               
1 25732U 99025C   25348.73422029  .00000100  00000+0  69202-4 0  9998
2 25732  98.6767  29.9696 0036358 228.1419 242.2149 14.18244134376122
OKEAN-O                 
1 25860U 99039A   25348.88521030  .00000821  00000+0  11495-3 0  9993
2 25860  97.9603  44.5683 0000857 102.9997 257.1310 14.80164818421843
SL-16 R/B               
1 25861U 99039B   25348.87823311  .00000673  00000+0  92426-4 0  9999
2 25861  98.0126  43.0296 0015094 167.7528 192.4054 14.81589407424304
DELTA 2 R/B             
1 25876U 99041E   25348.83796006  .00001366  00000+0  25953-3 0  9994
2 25876  51.7611 280.0698 0504659  97.9514 267.8980 14.11408001351041
HELIOS 1B               
1 25977U 99064A   25348.68724850  .00001894  00000+0  21647-3 0  9994
2 25977  98.1756 243.4106 0001592  41.6450 318.4886 14.87292830672620
TERRA                   
1 25994U 99068A   25348.93383295  .00000518  00000+0  11496-3 0  9992
2 25994  97.9748  40.5378 0003601  90.1900  12.8116 14.60904220382708
SL-16 R/B               
1 26070U 00006B   25348.87711554 -.00000219  00000+0 -86833-4 0  9996
2 26070  71.0029 276.1634 0018551 305.7047  54.2349 14.15810062336558
TITAN 4B R/B            
1 26474U 00047B   25348.93065901  .00002854  00000+0  18652-3 0  9992
2 26474  67.9898 278.7016 0038763 141.8111 218.5796 15.08799729380126
ENVISAT                 
1 27386U 02009A   25348.84467566  .00000167  00000+0  68088-4 0  9992
2 27386  98.3602 299.5319 0001135  83.7193 297.2822 14.39000147246974
