CCSDS_OMM_VERS = 2.0
CREATION_DATE  = 
ORIGINATOR     = 

OBJECT_NAME    = SL-16 R/B
OBJECT_ID      = 1998-043G
CENTER_NAME    = EARTH
REF_FRAME      = TEME
TIME_SYSTEM    = UTC
MEAN_ELEMENT_THEORY = SGP/SGP4

EPOCH          = 2025-12-14T19:59:44.760480
MEAN_MOTION    = 14.26026123
ECCENTRICITY   = .00087825
INCLINATION    = 98.8127
RA_OF_ASC_NODE = 296.6630
ARG_OF_PERICENTER = 259.9370
MEAN_ANOMALY   = 100.0819

EPHEMERIS_TYPE = 0
CLASSIFICATION_TYPE = U
NORAD_CAT_ID   = 25400
ELEMENT_SET_NO = 999
REV_AT_EPOCH   = 42689
BSTAR          = .52033751E-4
MEAN_MOTION_DOT = .79E-6
MEAN_MOTION_DDOT = 0

CCSDS_OMM_VERS = 2.0
CREATION_DATE  = 
ORIGINATOR     = 

OBJECT_NAME    = SL-16 R/B
OBJECT_ID      = 1998-045B
CENTER_NAME    = EARTH
REF_FRAME      = TEME
TIME_SYSTEM    = UTC
MEAN_ELEMENT_THEORY = SGP/SGP4

EPOCH          = 2025-12-14T17:49:08.333184
MEAN_MOTION    = 14.16174656
ECCENTRICITY   = .00068109
INCLINATION    = 71.0116
RA_OF_ASC_NODE = 0.2151
ARG_OF_PERICENTER = 174.3063
MEAN_ANOMALY   = 185.8139

EPHEMERIS_TYPE = 0
CLASSIFICATION_TYPE = U
NORAD_CAT_ID   = 25407
ELEMENT_SET_NO = 999
REV_AT_EPOCH   = 41507
BSTAR          = -.46057148E-4
MEAN_MOTION_DOT = -.139E-5
MEAN_MOTION_DDOT = 0

CCSDS_OMM_VERS = 2.0
CREATION_DATE  = 
ORIGINATOR     = 

OBJECT_NAME    = ISS (ZARYA)
OBJECT_ID      = 1998-067A
CENTER_NAME    = EARTH
REF_FRAME      = TEME
TIME_SYSTEM    = UTC
MEAN_ELEMENT_THEORY = SGP/SGP4

EPOCH          = 2025-12-14T20:42:23.988960
MEAN_MOTION    = 15.49595360
ECCENTRICITY   = .00032074
INCLINATION    = 51.6306
RA_OF_ASC_NODE = 131.9662
ARG_OF_PERICENTER = 249.8734
MEAN_ANOMALY   = 110.1909

EPHEMERIS_TYPE = 0
CLASSIFICATION_TYPE = U
NORAD_CAT_ID   = 25544
ELEMENT_SET_NO = 999
REV_AT_EPOCH   = 54318
BSTAR          = .13765617E-3
MEAN_MOTION_DOT = .7299E-4
MEAN_MOTION_DDOT = 0

CCSDS_OMM_VERS = 2.0
CREATION_DATE  = 
ORIGINATOR     = 

OBJECT_NAME    = CZ-4B R/B
OBJECT_ID      = 1999-025C
CENTER_NAME    = EARTH
REF_FRAME      = TEME
TIME_SYSTEM    = UTC
MEAN_ELEMENT_THEORY = SGP/SGP4

EPOCH          = 2025-12-14T17:37:16.633056
MEAN_MOTION    = 14.18244134
ECCENTRICITY   = .00363586
INCLINATION    = 98.6767
RA_OF_ASC_NODE = 29.9696
ARG_OF_PERICENTER = 228.1419
MEAN_ANOMALY   = 242.2149

EPHEMERIS_TYPE = 0
CLASSIFICATION_TYPE = U
NORAD_CAT_ID   = 25732
ELEMENT_SET_NO = 999
REV_AT_EPOCH   = 37612
BSTAR          = .69201906E-4
MEAN_MOTION_DOT = .1E-5
MEAN_MOTION_DDOT = 0

CCSDS_OMM_VERS = 2.0
CREATION_DATE  = 
ORIGINATOR     = 

OBJECT_NAME    = OKEAN-O
OBJECT_ID      = 1999-039A
CENTER_NAME    = EARTH
REF_FRAME      = TEME
TIME_SYSTEM    = UTC
MEAN_ELEMENT_THEORY = SGP/SGP4

EPOCH          = 2025-12-14T21:14:42.169920
MEAN_MOTION    = 14.80164818
ECCENTRICITY   = .00008572
INCLINATION    = 97.9603
RA_OF_ASC_NODE = 44.5683
ARG_OF_PERICENTER = 102.9997
MEAN_ANOMALY   = 257.1310

EPHEMERIS_TYPE = 0
CLASSIFICATION_TYPE = U
NORAD_CAT_ID   = 25860
ELEMENT_SET_NO = 999
REV_AT_EPOCH   = 42184
BSTAR          = .11495277E-3
MEAN_MOTION_DOT = .821E-5
MEAN_MOTION_DDOT = 0

CCSDS_OMM_VERS = 2.0
CREATION_DATE  = 
ORIGINATOR     = 

OBJECT_NAME    = SL-16 R/B
OBJECT_ID      = 1999-039B
CENTER_NAME    = EARTH
REF_FRAME      = TEME
TIME_SYSTEM    = UTC
MEAN_ELEMENT_THEORY = SGP/SGP4

EPOCH          = 2025-12-14T21:04:39.340704
MEAN_MOTION    = 14.81589407
ECCENTRICITY   = .00150947
INCLINATION    = 98.0126
RA_OF_ASC_NODE = 43.0296
ARG_OF_PERICENTER = 167.7528
MEAN_ANOMALY   = 192.4054

EPHEMERIS_TYPE = 0
CLASSIFICATION_TYPE = U
NORAD_CAT_ID   = 25861
ELEMENT_SET_NO = 999
REV_AT_EPOCH   = 42430
BSTAR          = .92425726E-4
MEAN_MOTION_DOT = .673E-5
MEAN_MOTION_DDOT = 0

CCSDS_OMM_VERS = 2.0
CREATION_DATE  = 
ORIGINATOR     = 

OBJECT_NAME    = DELTA 2 R/B
OBJECT_ID      = 1999-041E
CENTER_NAME    = EARTH
REF_FRAME      = TEME
TIME_SYSTEM    = UTC
MEAN_ELEMENT_THEORY = SGP/SGP4

EPOCH          = 2025-12-14T20:06:39.749184
MEAN_MOTION    = 14.11408001
ECCENTRICITY   = .05046591
INCLINATION    = 51.7611
RA_OF_ASC_NODE = 280.0698
ARG_OF_PERICENTER = 97.9514
MEAN_ANOMALY   = 267.8980

EPHEMERIS_TYPE = 0
CLASSIFICATION_TYPE = U
NORAD_CAT_ID   = 25876
ELEMENT_SET_NO = 999
REV_AT_EPOCH   = 35104
BSTAR          = .25952715E-3
MEAN_MOTION_DOT = .1366E-4
MEAN_MOTION_DDOT = 0

CCSDS_OMM_VERS = 2.0
CREATION_DATE  = 
ORIGINATOR     = 

OBJECT_NAME    = HELIOS 1B
OBJECT_ID      = 1999-064A
CENTER_NAME    = EARTH
REF_FRAME      = TEME
TIME_SYSTEM    = UTC
MEAN_ELEMENT_THEORY = SGP/SGP4

EPOCH          = 2025-12-14T16:29:38.270400
MEAN_MOTION    = 14.87292830
ECCENTRICITY   = .00015929
INCLINATION    = 98.1756
RA_OF_ASC_NODE = 243.4106
ARG_OF_PERICENTER = 41.6450
MEAN_ANOMALY   = 318.4886

EPHEMERIS_TYPE = 0
CLASSIFICATION_TYPE = U
NORAD_CAT_ID   = 25977
ELEMENT_SET_NO = 999
REV_AT_EPOCH   = 67262
BSTAR          = .21646778E-3
MEAN_MOTION_DOT = .1894E-4
MEAN_MOTION_DDOT = 0

CCSDS_OMM_VERS = 2.0
CREATION_DATE  = 
ORIGINATOR     = 

OBJECT_NAME    = TERRA
OBJECT_ID      = 1999-068A
CENTER_NAME    = EARTH
REF_FRAME      = TEME
TIME_SYSTEM    = UTC
MEAN_ELEMENT_THEORY = SGP/SGP4

EPOCH          = 2025-12-14T22:24:43.166880
MEAN_MOTION    = 14.60904220
ECCENTRICITY   = .00036018
INCLINATION    = 97.9748
RA_OF_ASC_NODE = 40.5378
ARG_OF_PERICENTER = 90.1900
MEAN_ANOMALY   = 12.8116

EPHEMERIS_TYPE = 0
CLASSIFICATION_TYPE = U
NORAD_CAT_ID   = 25994
ELEMENT_SET_NO = 999
REV_AT_EPOCH   = 38270
BSTAR          = .11495651E-3
MEAN_MOTION_DOT = .518E-5
MEAN_MOTION_DDOT = 0

CCSDS_OMM_VERS = 2.0
CREATION_DATE  = 
ORIGINATOR     = 

OBJECT_NAME    = SL-16 R/B
OBJECT_ID      = 2000-006B
CENTER_NAME    = EARTH
REF_FRAME      = TEME
TIME_SYSTEM    = UTC
MEAN_ELEMENT_THEORY = SGP/SGP4

EPOCH          = 2025-12-14T21:03:02.782656
MEAN_MOTION    = 14.15810062
ECCENTRICITY   = .00185513
INCLINATION    = 71.0029
RA_OF_ASC_NODE = 276.1634
ARG_OF_PERICENTER = 305.7047
MEAN_ANOMALY   = 54.2349

EPHEMERIS_TYPE = 0
CLASSIFICATION_TYPE = U
NORAD_CAT_ID   = 26070
ELEMENT_SET_NO = 999
REV_AT_EPOCH   = 33655
BSTAR          = -.86832681E-4
MEAN_MOTION_DOT = -.219E-5
MEAN_MOTION_DDOT = 0

CCSDS_OMM_VERS = 2.0
CREATION_DATE  = 
ORIGINATOR     = 

OBJECT_NAME    = TITAN 4B R/B
OBJECT_ID      = 2000-047B
CENTER_NAME    = EARTH
REF_FRAME      = TEME
TIME_SYSTEM    = UTC
MEAN_ELEMENT_THEORY = SGP/SGP4

EPOCH          = 2025-12-14T22:20:08.938464
MEAN_MOTION    = 15.08799729
ECCENTRICITY   = .00387633
INCLINATION    = 67.9898
RA_OF_ASC_NODE = 278.7016
ARG_OF_PERICENTER = 141.8111
MEAN_ANOMALY   = 218.5796

EPHEMERIS_TYPE = 0
CLASSIFICATION_TYPE = U
NORAD_CAT_ID   = 26474
ELEMENT_SET_NO = 999
REV_AT_EPOCH   = 38012
BSTAR          = .18651971E-3
MEAN_MOTION_DOT = .2854E-4
MEAN_MOTION_DDOT = 0

CCSDS_OMM_VERS = 2.0
CREATION_DATE  = 
ORIGINATOR     = 

OBJECT_NAME    = ENVISAT
OBJECT_ID      = 2002-009A
CENTER_NAME    = EARTH
REF_FRAME      = TEME
TIME_SYSTEM    = UTC
MEAN_ELEMENT_THEORY = SGP/SGP4

EPOCH          = 2025-12-14T20:16:19.977024
MEAN_MOTION    = 14.39000147
ECCENTRICITY   = .00011352
INCLINATION    = 98.3602
RA_OF_ASC_NODE = 299.5319
ARG_OF_PERICENTER = 83.7193
MEAN_ANOMALY   = 297.2822

EPHEMERIS_TYPE = 0
CLASSIFICATION_TYPE = U
NORAD_CAT_ID   = 27386
ELEMENT_SET_NO = 999
REV_AT_EPOCH   = 24697
BSTAR          = .68087569E-4
MEAN_MOTION_DOT = .167E-5
MEAN_MOTION_DDOT = 0

